CCSDS_OMM_VERS = 2.0
CREATION_DATE  = 
ORIGINATOR     = 

OBJECT_NAME    = HXMT (HUIYAN)
OBJECT_ID      = 2017-034A
CENTER_NAME    = EARTH
REF_FRAME      = TEME
TIME_SYSTEM    = UTC
MEAN_ELEMENT_THEORY = SGP/SGP4

EPOCH          = 2026-04-05T15:07:40.257120
MEAN_MOTION    = 15.17836995
ECCENTRICITY   = .00307623
INCLINATION    = 43.0141
RA_OF_ASC_NODE = 226.8531
ARG_OF_PERICENTER = 43.3132
MEAN_ANOMALY   = 317.0127

EPHEMERIS_TYPE = 0
CLASSIFICATION_TYPE = U
NORAD_CAT_ID   = 42758
ELEMENT_SET_NO = 999
REV_AT_EPOCH   = 48663
BSTAR          = .41811782E-3
MEAN_MOTION_DOT = .8488E-4
MEAN_MOTION_DDOT = 0

CCSDS_OMM_VERS = 2.0
CREATION_DATE  = 
ORIGINATOR     = 

OBJECT_NAME    = SAOCOM 1A
OBJECT_ID      = 2018-076A
CENTER_NAME    = EARTH
REF_FRAME      = TEME
TIME_SYSTEM    = UTC
MEAN_ELEMENT_THEORY = SGP/SGP4

EPOCH          = 2026-04-04T19:40:11.824320
MEAN_MOTION    = 14.82153107
ECCENTRICITY   = .00014768
INCLINATION    = 97.8896
RA_OF_ASC_NODE = 282.6237
ARG_OF_PERICENTER = 86.6110
MEAN_ANOMALY   = 273.5272

EPHEMERIS_TYPE = 0
CLASSIFICATION_TYPE = U
NORAD_CAT_ID   = 43641
ELEMENT_SET_NO = 999
REV_AT_EPOCH   = 40523
BSTAR          = .18640936E-3
MEAN_MOTION_DOT = .1432E-4
MEAN_MOTION_DDOT = 0

CCSDS_OMM_VERS = 2.0
CREATION_DATE  = 
ORIGINATOR     = 

OBJECT_NAME    = H-2A R/B
OBJECT_ID      = 2018-084L
CENTER_NAME    = EARTH
REF_FRAME      = TEME
TIME_SYSTEM    = UTC
MEAN_ELEMENT_THEORY = SGP/SGP4

EPOCH          = 2026-04-05T14:22:43.239648
MEAN_MOTION    = 15.42581392
ECCENTRICITY   = .00232361
INCLINATION    = 98.8679
RA_OF_ASC_NODE = 318.7592
ARG_OF_PERICENTER = 290.4408
MEAN_ANOMALY   = 69.4340

EPHEMERIS_TYPE = 0
CLASSIFICATION_TYPE = U
NORAD_CAT_ID   = 43682
ELEMENT_SET_NO = 999
REV_AT_EPOCH   = 40992
BSTAR          = .55185274E-3
MEAN_MOTION_DOT = .2415E-3
MEAN_MOTION_DDOT = 0

CCSDS_OMM_VERS = 2.0
CREATION_DATE  = 
ORIGINATOR     = 

OBJECT_NAME    = SAOCOM 1B
OBJECT_ID      = 2020-059A
CENTER_NAME    = EARTH
REF_FRAME      = TEME
TIME_SYSTEM    = UTC
MEAN_ELEMENT_THEORY = SGP/SGP4

EPOCH          = 2026-04-05T14:14:34.054944
MEAN_MOTION    = 14.82150936
ECCENTRICITY   = .00013982
INCLINATION    = 97.8884
RA_OF_ASC_NODE = 282.4827
ARG_OF_PERICENTER = 83.9637
MEAN_ANOMALY   = 276.1735

EPHEMERIS_TYPE = 0
CLASSIFICATION_TYPE = U
NORAD_CAT_ID   = 46265
ELEMENT_SET_NO = 999
REV_AT_EPOCH   = 30273
BSTAR          = .54906408E-4
MEAN_MOTION_DOT = .385E-5
MEAN_MOTION_DDOT = 0

CCSDS_OMM_VERS = 2.0
CREATION_DATE  = 
ORIGINATOR     = 

OBJECT_NAME    = CSS (TIANHE)
OBJECT_ID      = 2021-035A
CENTER_NAME    = EARTH
REF_FRAME      = TEME
TIME_SYSTEM    = UTC
MEAN_ELEMENT_THEORY = SGP/SGP4

EPOCH          = 2026-04-05T07:47:20.916960
MEAN_MOTION    = 15.61942740
ECCENTRICITY   = .00035577
INCLINATION    = 41.4682
RA_OF_ASC_NODE = 45.9319
ARG_OF_PERICENTER = 129.2727
MEAN_ANOMALY   = 230.8429

EPHEMERIS_TYPE = 0
CLASSIFICATION_TYPE = U
NORAD_CAT_ID   = 48274
ELEMENT_SET_NO = 999
REV_AT_EPOCH   = 28177
BSTAR          = .37223139E-3
MEAN_MOTION_DOT = .33173E-3
MEAN_MOTION_DDOT = 0

CCSDS_OMM_VERS = 2.0
CREATION_DATE  = 
ORIGINATOR     = 

OBJECT_NAME    = COSMOS 2550
OBJECT_ID      = 2021-056A
CENTER_NAME    = EARTH
REF_FRAME      = TEME
TIME_SYSTEM    = UTC
MEAN_ELEMENT_THEORY = SGP/SGP4

EPOCH          = 2026-04-04T09:42:48.621024
MEAN_MOTION    = 15.33837300
ECCENTRICITY   = .00084309
INCLINATION    = 67.1431
RA_OF_ASC_NODE = 323.0974
ARG_OF_PERICENTER = 269.6767
MEAN_ANOMALY   = 90.3422

EPHEMERIS_TYPE = 0
CLASSIFICATION_TYPE = U
NORAD_CAT_ID   = 48865
ELEMENT_SET_NO = 999
REV_AT_EPOCH   = 26740
BSTAR          = .91325794E-4
MEAN_MOTION_DOT = .2815E-4
MEAN_MOTION_DDOT = 0

CCSDS_OMM_VERS = 2.0
CREATION_DATE  = 
ORIGINATOR     = 

OBJECT_NAME    = CZ-2C R/B
OBJECT_ID      = 2022-058K
CENTER_NAME    = EARTH
REF_FRAME      = TEME
TIME_SYSTEM    = UTC
MEAN_ELEMENT_THEORY = SGP/SGP4

EPOCH          = 2026-04-05T10:24:10.926720
MEAN_MOTION    = 15.56407820
ECCENTRICITY   = .0041117
INCLINATION    = 50.1872
RA_OF_ASC_NODE = 180.5101
ARG_OF_PERICENTER = 315.5678
MEAN_ANOMALY   = 44.1997

EPHEMERIS_TYPE = 0
CLASSIFICATION_TYPE = U
NORAD_CAT_ID   = 52794
ELEMENT_SET_NO = 999
REV_AT_EPOCH   = 21429
BSTAR          = .57072673E-3
MEAN_MOTION_DOT = .42461E-3
MEAN_MOTION_DDOT = 0

CCSDS_OMM_VERS = 2.0
CREATION_DATE  = 
ORIGINATOR     = 

OBJECT_NAME    = CZ-2C R/B
OBJECT_ID      = 2022-132E
CENTER_NAME    = EARTH
REF_FRAME      = TEME
TIME_SYSTEM    = UTC
MEAN_ELEMENT_THEORY = SGP/SGP4

EPOCH          = 2026-04-05T13:53:59.296992
MEAN_MOTION    = 15.64550164
ECCENTRICITY   = .0015602
INCLINATION    = 97.2954
RA_OF_ASC_NODE = 99.7644
ARG_OF_PERICENTER = 0.0429
MEAN_ANOMALY   = 0.0829

EPHEMERIS_TYPE = 0
CLASSIFICATION_TYPE = U
NORAD_CAT_ID   = 54039
ELEMENT_SET_NO = 999
REV_AT_EPOCH   = 19457
BSTAR          = .55713321E-3
MEAN_MOTION_DOT = .54135E-3
MEAN_MOTION_DDOT = 0

CCSDS_OMM_VERS = 2.0
CREATION_DATE  = 
ORIGINATOR     = 

OBJECT_NAME    = GSLV R/B
OBJECT_ID      = 2022-138AN
CENTER_NAME    = EARTH
REF_FRAME      = TEME
TIME_SYSTEM    = UTC
MEAN_ELEMENT_THEORY = SGP/SGP4

EPOCH          = 2026-04-05T14:17:01.682304
MEAN_MOTION    = 14.96956391
ECCENTRICITY   = .00235492
INCLINATION    = 87.3847
RA_OF_ASC_NODE = 157.3532
ARG_OF_PERICENTER = 58.2980
MEAN_ANOMALY   = 302.0543

EPHEMERIS_TYPE = 0
CLASSIFICATION_TYPE = U
NORAD_CAT_ID   = 54149
ELEMENT_SET_NO = 999
REV_AT_EPOCH   = 18795
BSTAR          = .2863054E-3
MEAN_MOTION_DOT = .3336E-4
MEAN_MOTION_DDOT = 0

CCSDS_OMM_VERS = 2.0
CREATION_DATE  = 
ORIGINATOR     = 

OBJECT_NAME    = XRISM
OBJECT_ID      = 2023-137A
CENTER_NAME    = EARTH
REF_FRAME      = TEME
TIME_SYSTEM    = UTC
MEAN_ELEMENT_THEORY = SGP/SGP4

EPOCH          = 2026-04-05T07:36:15.886656
MEAN_MOTION    = 15.11832006
ECCENTRICITY   = .0007824
INCLINATION    = 31.0012
RA_OF_ASC_NODE = 111.3941
ARG_OF_PERICENTER = 306.0860
MEAN_ANOMALY   = 53.9053

EPHEMERIS_TYPE = 0
CLASSIFICATION_TYPE = U
NORAD_CAT_ID   = 57800
ELEMENT_SET_NO = 999
REV_AT_EPOCH   = 14182
BSTAR          = .3748E-3
MEAN_MOTION_DOT = .6668E-4
MEAN_MOTION_DDOT = 0

CCSDS_OMM_VERS = 2.0
CREATION_DATE  = 
ORIGINATOR     = 

OBJECT_NAME    = ACS3
OBJECT_ID      = 2024-077B
CENTER_NAME    = EARTH
REF_FRAME      = TEME
TIME_SYSTEM    = UTC
MEAN_ELEMENT_THEORY = SGP/SGP4

EPOCH          = 2026-04-05T13:25:09.392736
MEAN_MOTION    = 13.91018920
ECCENTRICITY   = .00732918
INCLINATION    = 97.1945
RA_OF_ASC_NODE = 30.6334
ARG_OF_PERICENTER = 16.5306
MEAN_ANOMALY   = 343.8224

EPHEMERIS_TYPE = 0
CLASSIFICATION_TYPE = U
NORAD_CAT_ID   = 59588
ELEMENT_SET_NO = 999
REV_AT_EPOCH   = 9793
BSTAR          = .36522683E-1
MEAN_MOTION_DOT = .4709E-3
MEAN_MOTION_DDOT = 0

CCSDS_OMM_VERS = 2.0
CREATION_DATE  = 
ORIGINATOR     = 

OBJECT_NAME    = HTV-X1
OBJECT_ID      = 2025-241A
CENTER_NAME    = EARTH
REF_FRAME      = TEME
TIME_SYSTEM    = UTC
MEAN_ELEMENT_THEORY = SGP/SGP4

EPOCH          = 2026-04-05T13:58:59.082528
MEAN_MOTION    = 15.32549807
ECCENTRICITY   = .00073678
INCLINATION    = 51.6364
RA_OF_ASC_NODE = 303.4264
ARG_OF_PERICENTER = 276.7302
MEAN_ANOMALY   = 83.2841

EPHEMERIS_TYPE = 0
CLASSIFICATION_TYPE = U
NORAD_CAT_ID   = 66174
ELEMENT_SET_NO = 999
REV_AT_EPOCH   = 2506
BSTAR          = .22482392E-3
MEAN_MOTION_DOT = .6811E-4
MEAN_MOTION_DDOT = 0

CCSDS_OMM_VERS = 2.0
CREATION_DATE  = 
ORIGINATOR     = 

OBJECT_NAME    = SZ-21 MODULE
OBJECT_ID      = 2025-246C
CENTER_NAME    = EARTH
REF_FRAME      = TEME
TIME_SYSTEM    = UTC
MEAN_ELEMENT_THEORY = SGP/SGP4

EPOCH          = 2026-04-05T13:00:16.474176
MEAN_MOTION    = 15.70809155
ECCENTRICITY   = .00035307
INCLINATION    = 41.4755
RA_OF_ASC_NODE = 37.8006
ARG_OF_PERICENTER = 233.2393
MEAN_ANOMALY   = 126.8126

EPHEMERIS_TYPE = 0
CLASSIFICATION_TYPE = U
NORAD_CAT_ID   = 66515
ELEMENT_SET_NO = 999
REV_AT_EPOCH   = 2229
BSTAR          = .35049122E-3
MEAN_MOTION_DOT = .4484E-3
MEAN_MOTION_DDOT = 0

